      2.10          N: GNSS NAV DATA                        RINEX VERSION / TYPE
fic2rin                                 06/20/2023 00:17:53 PGM / RUN BY / DATE
                                                            END OF HEADER
6  23  6 19  1 59 44.0  .584259163588D-03 -.216004991671D-11  .000000000000D+00
     .200000000000D+02 -.280312500000D+02  .395695053716D-08  .808018305983D+00
    -.131502747536D-05  .272163690533D-02  .139698386192D-06  .515368573952D+04
     .935840000000D+05  .279396772385D-07  .188649571456D+01 -.298023223877D-07
     .989028856725D+00  .389187500000D+03 -.745812662251D+00 -.812140971788D-08
     .621454457501D-10  .100000000000D+01  .226700000000D+04  .000000000000D+00
     .240000000000D+01  .000000000000D+00  .372529029846D-08  .200000000000D+02
     .864000000000D+05  .400000000000D+01
15 23  6 19 22  0  0.0  .504096969962D-04  .352429196937D-11  .000000000000D+00
     .270000000000D+02 -.287500000000D+02  .521950312754D-08 -.210438836114D+00
    -.131130218506D-05  .149963689037D-01  .963918864727D-05  .515373929977D+04
     .165600000000D+06 -.134110450745D-06 -.245408497614D+01  .134110450745D-06
     .932676876341D+00  .177562500000D+03  .120498906166D+01 -.843963725905D-08
     .402516766439D-09  .100000000000D+01  .226700000000D+04  .000000000000D+00
     .240000000000D+01  .000000000000D+00 -.107102096081D-07  .270000000000D+02
     .158400000000D+06  .400000000000D+01
30 23  6 19 22  0  0.0 -.509932637215D-03  .250111042988D-11  .000000000000D+00
     .600000000000D+02 -.246875000000D+01  .536022327481D-08 -.217727755224D+01
    -.201165676117D-06  .656240677927D-02  .499933958054D-05  .515357033348D+04
     .165600000000D+06  .409781932831D-07 -.125723542828D+01 -.670552253723D-07
     .935008309866D+00  .268781250000D+03 -.256906117637D+01 -.826177270742D-08
    -.578595529398D-10  .100000000000D+01  .226700000000D+04  .000000000000D+00
     .240000000000D+01  .000000000000D+00  .372529029846D-08  .600000000000D+02
     .158400000000D+06  .400000000000D+01
27 23  6 19 22  0  0.0  .131586566567D-04 -.761701812735D-11  .000000000000D+00
     .310000000000D+02  .131718750000D+03  .406159775328D-08  .780775329101D+00
     .674091279507D-05  .115494707134D-01  .746548175812D-05  .515367555428D+04
     .165600000000D+06 -.150874257088D-06  .824706426939D+00  .100582838058D-06
     .967367823713D+00  .238625000000D+03  .742552868227D+00 -.798783272530D-08
     .735744932444D-10  .100000000000D+01  .226700000000D+04  .000000000000D+00
     .240000000000D+01  .000000000000D+00  .186264514923D-08  .310000000000D+02
     .158400000000D+06  .400000000000D+01
29 23  6 19 22  0  0.0 -.603313557804D-03 -.113686837722D-11  .000000000000D+00
     .770000000000D+02  .135937500000D+03  .389301930274D-08  .801219891602D+00
     .709667801857D-05  .260653556325D-02  .582076609135D-05  .515375856590D+04
     .165600000000D+06  .614672899246D-07  .904710660556D+00 -.465661287308D-07
     .976268856602D+00  .274781250000D+03  .243318923361D+01 -.785032699763D-08
     .289297764699D-09  .100000000000D+01  .226700000000D+04  .000000000000D+00
     .240000000000D+01  .000000000000D+00 -.102445483208D-07  .770000000000D+02
     .158400000000D+06  .400000000000D+01
32 23  6 19 22  0  0.0 -.503885559738D-03 -.829913915368D-11  .000000000000D+00
     .500000000000D+02 -.341250000000D+02  .447232914760D-08  .138772773266D+01
    -.171177089214D-05  .692908815108D-02  .957585871220D-05  .515375952339D+04
     .165600000000D+06 -.162050127983D-06 -.232185185484D+01  .968575477600D-07
     .959803200136D+00  .198375000000D+03 -.220081556327D+01 -.784818405122D-08
     .413588656199D-09  .100000000000D+01  .226700000000D+04  .000000000000D+00
     .240000000000D+01  .000000000000D+00  .465661287308D-09  .500000000000D+02
     .158400000000D+06  .400000000000D+01
20 23  6 19 22  0  0.0  .427101738751D-03 -.204636307899D-11  .000000000000D+00
     .430000000000D+02 -.122625000000D+03  .487698886045D-08 -.612839756447D+00
    -.631064176559D-05  .403289939277D-02  .575743615627D-05  .515356909561D+04
     .165600000000D+06  .260770320892D-07  .275498824368D+01  .149011611938D-07
     .949169858654D+00  .261781250000D+03 -.287806819084D+01 -.821319925557D-08
    -.860750139413D-10  .100000000000D+01  .226700000000D+04  .000000000000D+00
     .240000000000D+01  .000000000000D+00 -.838190317154D-08  .430000000000D+02
     .158400000000D+06  .400000000000D+01
13 23  6 19 22  0  0.0  .536266714334D-03  .511590769747D-11  .000000000000D+00
     .360000000000D+02 -.515625000000D+01  .444125642473D-08  .378987326092D+00
    -.689178705215D-07  .706957210787D-02  .859238207340D-05  .515366815948D+04
     .165600000000D+06 -.465661287308D-07 -.217447854815D+01  .745058059692D-07
     .969725589763D+00  .215843750000D+03  .908054373412D+00 -.789282876800D-08
     .391444876679D-09  .100000000000D+01  .226700000000D+04  .000000000000D+00
     .240000000000D+01  .000000000000D+00 -.111758708954D-07  .360000000000D+02
     .158400000000D+06  .400000000000D+01
12 23  6 19 22  0  0.0 -.390654429793D-03 -.466116034659D-11  .000000000000D+00
     .950000000000D+02  .419375000000D+02  .400373820034D-08 -.281309706725D+01
     .221841037273D-05  .873814069200D-02  .969879329205D-05  .515359028053D+04
     .165600000000D+06  .726431608200D-07 -.148284406218D+00 -.335276126862D-07
     .965554116896D+00  .194437500000D+03  .138098792424D+01 -.739995109481D-08
    -.462162108050D-09  .100000000000D+01  .226700000000D+04  .000000000000D+00
     .340000000000D+01  .000000000000D+00 -.125728547573D-07  .950000000000D+02
     .158400000000D+06  .400000000000D+01
10 23  6 19 22  0  0.0 -.418559648097D-04 -.159161572810D-11  .000000000000D+00
     .590000000000D+02 -.140375000000D+03  .396159358770D-08  .275244416916D+01
    -.723078846931D-05  .853320956230D-02  .702217221260D-05  .515369475746D+04
     .165600000000D+06 -.298023223877D-07  .292199874886D+01 -.104308128357D-06
     .979443241080D+00  .255375000000D+03 -.243484570745D+01 -.760638826517D-08
    -.104290058385D-09  .100000000000D+01  .226700000000D+04  .000000000000D+00
     .240000000000D+01  .000000000000D+00  .232830643654D-08  .590000000000D+02
     .158400000000D+06  .400000000000D+01
9  23  6 19 22  0  0.0 -.131830107421D-03  .898126018001D-11  .000000000000D+00
     .510000000000D+02 -.234062500000D+02  .449447292712D-08  .121208867771D+01
    -.143982470036D-05  .241420569364D-02  .919401645660D-05  .515359852982D+04
     .165600000000D+06 -.558793544769D-08 -.233511483107D+01 -.763684511185D-07
     .956207647395D+00  .198593750000D+03  .194019904812D+01 -.781461122421D-08
     .383230248792D-09  .100000000000D+01  .226700000000D+04  .000000000000D+00
     .240000000000D+01  .000000000000D+00  .931322574615D-09  .510000000000D+02
     .158400000000D+06  .400000000000D+01
6  23  6 19 22  0  0.0  .584101770073D-03 -.216004991671D-11  .000000000000D+00
     .920000000000D+02 -.750000000000D+01  .415874465698D-08 -.125397785936D+01
    -.584870576859D-06  .272120628506D-02  .651925802231D-06  .515368728065D+04
     .165600000000D+06 -.167638063431D-07  .188591218873D+01 -.707805156708D-07
     .989023053329D+00  .384718750000D+03 -.746151981711D+00 -.813355308085D-08
     .842892252703D-10  .100000000000D+01  .226700000000D+04  .000000000000D+00
     .240000000000D+01  .000000000000D+00  .372529029846D-08  .920000000000D+02
     .158400000000D+06  .400000000000D+01
11 23  6 19 22  0  0.0 -.242233742028D-03 -.152340362547D-10  .000000000000D+00
     .830000000000D+02 -.222812500000D+02  .471305346045D-08  .195156049856D+00
    -.108033418655D-05  .910899834707D-03  .294297933578D-06  .515376137352D+04
     .165600000000D+06  .745058059692D-08  .192672232054D+01 -.223517417908D-07
     .965274660044D+00  .378500000000D+03 -.288735155883D+01 -.835356224511D-08
     .485734518507D-10  .100000000000D+01  .226700000000D+04  .000000000000D+00
     .240000000000D+01  .000000000000D+00 -.884756445885D-08  .595000000000D+03
     .158400000000D+06  .400000000000D+01
24 23  6 19 22  0  0.0 -.230572186410D-03 -.129602995003D-10  .000000000000D+00
     .960000000000D+02  .625000000000D+00  .547522806523D-08 -.112608836274D+01
     .763684511185D-07  .139513598988D-01  .489316880703D-05  .515363663483D+04
     .165600000000D+06  .314787030220D-06 -.135410970257D+01  .266358256340D-06
     .933443302049D+00  .269500000000D+03  .896875473206D+00 -.838427781025D-08
    -.145006040084D-09  .100000000000D+01  .226700000000D+04  .000000000000D+00
     .240000000000D+01  .000000000000D+00  .279396772385D-08  .960000000000D+02
     .158400000000D+06  .400000000000D+01
26 23  6 19 22  0  0.0  .238655135036D-03 -.909494701773D-12  .000000000000D+00
     .850000000000D+02  .161875000000D+02  .490449000598D-08  .258545695217D+01
     .789761543274D-06  .792638317216D-02  .921636819839D-05  .515370453262D+04
     .165600000000D+06 -.763684511185D-07 -.286895222749D+00 -.115483999252D-06
     .933951540270D+00  .187625000000D+03  .463915907274D+00 -.797176062726D-08
    -.546094175586D-09  .100000000000D+01  .226700000000D+04  .000000000000D+00
     .240000000000D+01  .000000000000D+00  .698491930962D-08  .850000000000D+02
     .158400000000D+06  .400000000000D+01
25 23  6 19 22  0  0.0  .450901221484D-03  .250111042988D-11  .000000000000D+00
     .480000000000D+02  .302500000000D+02  .427267797419D-08 -.299227795513D+01
     .158883631229D-05  .110646843677D-01  .942870974541D-05  .515372070694D+04
     .165600000000D+06  .800937414169D-07 -.230820803276D+00 -.856816768646D-07
     .953215908240D+00  .191531250000D+03  .105242579561D+01 -.752995651006D-08
    -.485377360772D-09  .100000000000D+01  .226700000000D+04  .000000000000D+00
     .240000000000D+01  .000000000000D+00  .558793544769D-08  .480000000000D+02
     .158400000000D+06  .400000000000D+01
